GLOBALSTAR M035 [-]     
1 25851U 99037A   24031.50105160 -.00000103  00000+0 -15069-2 0  9995
2 25851  51.9953  95.9886 0013548 243.9402 220.9755 11.04528613 40729
GLOBALSTAR M032 [-]     
1 25852U 99037B   24030.90256041 -.00000053  00000+0  42918-3 0  9991
2 25852  51.9981 317.2518 0009971  39.5304 320.6221 11.19050650 78441
GLOBALSTAR M051 [-]     
1 25853U 99037C   24030.67977315 -.00000066  00000+0  14698-3 0  9998
2 25853  51.9774 175.5272 0002113  61.2155 298.8868 11.42196045 74850
GLOBALSTAR M030 [-]     
1 25854U 99037D   24031.40094893 -.00000037  00000+0  79586-3 0  9997
2 25854  51.9911  11.8634 0003825 225.1454 134.9053 11.55087705 92045
GLOBALSTAR M048 [-]     
1 25872U 99041A   24031.00097192 -.00000050  00000+0  53435-3 0  9993
2 25872  51.9375  90.3308 0013043  36.3109  28.1267 11.33842878 67781
GLOBALSTAR M026 [-]     
1 25873U 99041B   24030.95906394 -.00000129  00000+0 -23762-2 0  9997
2 25873  51.9966 220.4612 0002122 115.8765  36.3284 11.06834548 92760
GLOBALSTAR M043 [-]     
1 25874U 99041C   24030.70582322 -.00000050  00000+0  53595-3 0  9992
2 25874  51.9371 178.6065 0013298 170.1808 289.3752 11.25674587 66177
GLOBALSTAR M028 [-]     
1 25875U 99041D   24030.78410125 -.00000048  00000+0  34179-3 0  9996
2 25875  51.9604 254.0830 0064442  58.4851 302.2284 12.50549707127198
